{
  "norad_id": 67419,
  "name": "STARLINK-36424",
  "history": [
    {
      "epoch": "2026-03-28T19:31:48.549504",
      "apogee_km": 484.3945038320062,
      "perigee_km": 481.62397298093765,
      "latitude_deg": -42.90276150586523,
      "longitude_deg": -79.97938944003545,
      "semi_major_axis_km": 6861.146238406472,
      "eccentricity": 0.0002019,
      "inclination_deg": 42.9968,
      "raan_deg": 129.7721,
      "arg_perigee_deg": 268.714,
      "mean_anomaly_deg": 91.348,
      "mean_motion_rev_day": 15.27593311
    }
  ]
}