{"fetched_at":"2026-03-29T16:36:15Z","count":15609,"tles":[{"name":"STARLINK-36424","line1":"1 67419U 26005R   26087.81375636  .00018984  00000+0  69731-3 0  9990","line2":"2 67419  42.9968 129.7721 0002019 268.7140  91.3480 15.27593311 11628","category":"Starlink"}]}